start=new Date('2023-06-09T00:00:00.000Z').valueOf();
sats=[{"MEAN_ANOMALY":"256.1958","MEAN_MOTION":"15.00449225","RCS_SIZE":"LARGE","FILE":"3928007","MEAN_MOTION_DDOT":"0.0000000000000","REF_FRAME":"TEME","COUNTRY_CODE":"US","ELEMENT_SET_NO":"999","OBJECT_ID":"2022-099N","CLASSIFICATION_TYPE":"U","APOAPSIS":"566.460","PERIAPSIS":"564.564","TIME_SYSTEM":"UTC","TLE_LINE2":"2 53477  97.6553 280.5236 0001365 103.9418 256.1958 15.00449225 45849","REV_AT_EPOCH":"4584","PERIOD":"95.971","SEMIMAJOR_AXIS":"6943.647","CENTER_NAME":"EARTH","EPHEMERIS_TYPE":"0","SITE":"AFWTR","EPOCH":"2023-06-08T07:52:15.282624","BSTAR":"0.00004847600000","GP_ID":"233474000","TLE_LINE1":"1 53477U 22099N   23159.32795466  .00000551  00000-0  48476-4 0  9994","LAUNCH_DATE":"2022-08-12","MEAN_MOTION_DOT":"0.00000551","OBJECT_NAME":"STARLINK-4412","INCLINATION":"97.6553","OBJECT_TYPE":"PAYLOAD","ECCENTRICITY":"0.00013650","DECAY_DATE":null,"ARG_OF_PERICENTER":"103.9418","MEAN_ELEMENT_THEORY":"SGP4","NORAD_CAT_ID":"53477","RA_OF_ASC_NODE":"280.5236"},{"MEAN_ELEMENT_THEORY":"SGP4","RA_OF_ASC_NODE":"280.5443","NORAD_CAT_ID":"53478","ARG_OF_PERICENTER":"107.6029","OBJECT_TYPE":"PAYLOAD","DECAY_DATE":null,"ECCENTRICITY":"0.00011370","MEAN_MOTION_DOT":"0.00000397","TLE_LINE1":"1 53478U 22099P   23159.32293378  .00000397  00000-0  35533-4 0  9998","LAUNCH_DATE":"2022-08-12","INCLINATION":"97.6555","OBJECT_NAME":"STARLINK-4433","BSTAR":"0.00003553300000","EPOCH":"2023-06-08T07:45:01.478592","SITE":"AFWTR","GP_ID":"233474248","SEMIMAJOR_AXIS":"6941.150","EPHEMERIS_TYPE":"0","CENTER_NAME":"EARTH","PERIAPSIS":"562.226","APOAPSIS":"563.805","CLASSIFICATION_TYPE":"U","OBJECT_ID":"2022-099P","ELEMENT_SET_NO":"999","COUNTRY_CODE":"US","PERIOD":"95.920","TLE_LINE2":"2 53478  97.6555 280.5443 0001137 107.6029 252.5319 15.01258851 45146","REV_AT_EPOCH":"4514","TIME_SYSTEM":"UTC","RCS_SIZE":"LARGE","MEAN_MOTION":"15.01258851","MEAN_ANOMALY":"252.5319","REF_FRAME":"TEME","MEAN_MOTION_DDOT":"0.0000000000000","FILE":"3928007"},{"NORAD_CAT_ID":"53479","RA_OF_ASC_NODE":"280.5318","MEAN_ELEMENT_THEORY":"SGP4","ARG_OF_PERICENTER":"120.2523","ECCENTRICITY":"0.00006970","DECAY_DATE":null,"OBJECT_TYPE":"PAYLOAD","OBJECT_NAME":"STARLINK-4436","INCLINATION":"97.6547","LAUNCH_DATE":"2022-08-12","TLE_LINE1":"1 53479U 22099Q   23159.32108220  .00000839  00000-0  69892-4 0  9996","MEAN_MOTION_DOT":"0.00000839","GP_ID":"233472498","SITE":"AFWTR","EPOCH":"2023-06-08T07:42:21.502080","BSTAR":"0.00006989200000","CENTER_NAME":"EARTH","EPHEMERIS_TYPE":"0","SEMIMAJOR_AXIS":"6941.152","TIME_SYSTEM":"UTC","PERIOD":"95.920","TLE_LINE2":"2 53479  97.6547 280.5318 0000697 120.2523 239.8770 15.01258407 45145","REV_AT_EPOCH":"4514","COUNTRY_CODE":"US","ELEMENT_SET_NO":"999","OBJECT_ID":"2022-099Q","CLASSIFICATION_TYPE":"U","APOAPSIS":"563.501","PERIAPSIS":"562.533","MEAN_MOTION_DDOT":"0.0000000000000","FILE":"3928007","REF_FRAME":"TEME","MEAN_ANOMALY":"239.8770","MEAN_MOTION":"15.01258407","RCS_SIZE":"LARGE"},{"OBJECT_TYPE":"PAYLOAD","ECCENTRICITY":"0.00013130","DECAY_DATE":null,"MEAN_MOTION_DOT":"0.00000758","TLE_LINE1":"1 53480U 22099R   23159.32478671  .00000758  00000-0  63606-4 0  9995","LAUNCH_DATE":"2022-08-12","INCLINATION":"97.6546","OBJECT_NAME":"STARLINK-4442","MEAN_ELEMENT_THEORY":"SGP4","RA_OF_ASC_NODE":"280.5363","NORAD_CAT_ID":"53480","ARG_OF_PERICENTER":"108.7613","CLASSIFICATION_TYPE":"U","APOAPSIS":"563.930","PERIAPSIS":"562.107","COUNTRY_CODE":"US","ELEMENT_SET_NO":"999","OBJECT_ID":"2022-099R","PERIOD":"95.920","TLE_LINE2":"2 53480  97.6546 280.5363 0001313 108.7613 251.3754 15.01257785 45142","REV_AT_EPOCH":"4514","TIME_SYSTEM":"UTC","RCS_SIZE":"LARGE","MEAN_ANOMALY":"251.3754","MEAN_MOTION":"15.01257785","MEAN_MOTION_DDOT":"0.0000000000000","FILE":"3928007","REF_FRAME":"TEME","BSTAR":"0.00006360600000","SITE":"AFWTR","EPOCH":"2023-06-08T07:47:41.571744","GP_ID":"233472748","SEMIMAJOR_AXIS":"6941.154","EPHEMERIS_TYPE":"0","CENTER_NAME":"EARTH"},{"MEAN_MOTION_DOT":"-0.00000603","LAUNCH_DATE":"2022-08-12","TLE_LINE1":"1 53481U 22099S   23159.31922925 -.00000603  00000-0 -42378-4 0  9995","INCLINATION":"97.6540","OBJECT_NAME":"STARLINK-4302","OBJECT_TYPE":"PAYLOAD","ECCENTRICITY":"0.00006080","DECAY_DATE":null,"ARG_OF_PERICENTER":"178.4456","MEAN_ELEMENT_THEORY":"SGP4","RA_OF_ASC_NODE":"280.5297","NORAD_CAT_ID":"53481","RCS_SIZE":"LARGE","MEAN_MOTION":"15.01264616","MEAN_ANOMALY":"181.6771","REF_FRAME":"TEME","FILE":"3928007","MEAN_MOTION_DDOT":"0.0000000000000","APOAPSIS":"563.420","PERIAPSIS":"562.576","CLASSIFICATION_TYPE":"U","OBJECT_ID":"2022-099S","ELEMENT_SET_NO":"999","COUNTRY_CODE":"US","REV_AT_EPOCH":"4514","TLE_LINE2":"2 53481  97.6540 280.5297 0000608 178.4456 181.6771 15.01264616 45143","PERIOD":"95.919","TIME_SYSTEM":"UTC","SEMIMAJOR_AXIS":"6941.133","EPHEMERIS_TYPE":"0","CENTER_NAME":"EARTH","BSTAR":"-0.00004237800000","EPOCH":"2023-06-08T07:39:41.407200","SITE":"AFWTR","GP_ID":"233473500"},{"OBJECT_NAME":"STARLINK-4360","INCLINATION":"97.6524","LAUNCH_DATE":"2022-08-12","TLE_LINE1":"1 53482U 22099T   23159.31035985  .00000322  00000-0  29085-4 0  9993","MEAN_MOTION_DOT":"0.00000322","ECCENTRICITY":"0.00008210","DECAY_DATE":null,"OBJECT_TYPE":"PAYLOAD","ARG_OF_PERICENTER":"202.4707","NORAD_CAT_ID":"53482","RA_OF_ASC_NODE":"280.5365","MEAN_ELEMENT_THEORY":"SGP4","MEAN_MOTION_DDOT":"0.0000000000000","FILE":"3928007","REF_FRAME":"TEME","MEAN_ANOMALY":"157.6482","MEAN_MOTION":"15.02068620","RCS_SIZE":"LARGE","TIME_SYSTEM":"UTC","REV_AT_EPOCH":"4514","TLE_LINE2":"2 53482  97.6524 280.5365 0000821 202.4707 157.6482 15.02068620 45146","PERIOD":"95.868","COUNTRY_CODE":"US","OBJECT_ID":"2022-099T","ELEMENT_SET_NO":"999","CLASSIFICATION_TYPE":"U","PERIAPSIS":"559.951","APOAPSIS":"561.090","CENTER_NAME":"EARTH","EPHEMERIS_TYPE":"0","SEMIMAJOR_AXIS":"6938.656","GP_ID":"233473748","SITE":"AFWTR","EPOCH":"2023-06-08T07:26:55.091040","BSTAR":"0.00002908500000"},{"BSTAR":"-0.00254480000000","SITE":"AFWTR","EPOCH":"2023-06-08T22:00:00.999936","GP_ID":"233504658","SEMIMAJOR_AXIS":"6941.055","EPHEMERIS_TYPE":"0","CENTER_NAME":"EARTH","CLASSIFICATION_TYPE":"U","APOAPSIS":"563.551","PERIAPSIS":"562.289","COUNTRY_CODE":"US","ELEMENT_SET_NO":"999","OBJECT_ID":"2022-099U","TLE_LINE2":"2 53483  97.6527 281.1297 0000909 106.1851 310.8477 15.01289871  1307","PERIOD":"95.918","REV_AT_EPOCH":"130","TIME_SYSTEM":"UTC","RCS_SIZE":"LARGE","MEAN_ANOMALY":"310.8477","MEAN_MOTION":"15.01289871","FILE":"3928201","MEAN_MOTION_DDOT":"0.0000000000000","REF_FRAME":"TEME","MEAN_ELEMENT_THEORY":"SGP4","RA_OF_ASC_NODE":"281.1297","NORAD_CAT_ID":"53483","ARG_OF_PERICENTER":"106.1851","OBJECT_TYPE":"PAYLOAD","DECAY_DATE":null,"ECCENTRICITY":"0.00009090","MEAN_MOTION_DOT":"-0.00032619","LAUNCH_DATE":"2022-08-12","TLE_LINE1":"1 53483U 22099U   23159.91667824 -.00032619  00000-0 -25448-2 0  9996","INCLINATION":"97.6527","OBJECT_NAME":"STARLINK-4401"},{"MEAN_ELEMENT_THEORY":"SGP4","RA_OF_ASC_NODE":"280.5266","NORAD_CAT_ID":"53484","ARG_OF_PERICENTER":"229.6355","OBJECT_TYPE":"PAYLOAD","DECAY_DATE":null,"ECCENTRICITY":"0.00010530","MEAN_MOTION_DOT":"0.00000594","TLE_LINE1":"1 53484U 22099V   23159.31737654  .00000594  00000-0  50843-4 0  9994","LAUNCH_DATE":"2022-08-12","INCLINATION":"97.6537","OBJECT_NAME":"STARLINK-4426","BSTAR":"0.00005084300000","EPOCH":"2023-06-08T07:37:01.333056","SITE":"AFWTR","GP_ID":"233473249","SEMIMAJOR_AXIS":"6941.151","EPHEMERIS_TYPE":"0","CENTER_NAME":"EARTH","PERIAPSIS":"562.285","APOAPSIS":"563.746","CLASSIFICATION_TYPE":"U","OBJECT_ID":"2022-099V","ELEMENT_SET_NO":"999","COUNTRY_CODE":"US","TLE_LINE2":"2 53484  97.6537 280.5266 0001053 229.6355 130.4778 15.01258813 45141","REV_AT_EPOCH":"4514","PERIOD":"95.920","TIME_SYSTEM":"UTC","RCS_SIZE":"LARGE","MEAN_MOTION":"15.01258813","MEAN_ANOMALY":"130.4778","REF_FRAME":"TEME","FILE":"3928007","MEAN_MOTION_DDOT":"0.0000000000000"},{"MEAN_MOTION_DOT":"0.00000370","LAUNCH_DATE":"2022-08-12","TLE_LINE1":"1 53485U 22099W   23159.31181908  .00000370  00000-0  33394-4 0  9994","INCLINATION":"97.6524","OBJECT_NAME":"STARLINK-4430","OBJECT_TYPE":"PAYLOAD","DECAY_DATE":null,"ECCENTRICITY":"0.00032600","ARG_OF_PERICENTER":"231.5524","MEAN_ELEMENT_THEORY":"SGP4","RA_OF_ASC_NODE":"280.5122","NORAD_CAT_ID":"53485","RCS_SIZE":"LARGE","MEAN_ANOMALY":"128.5408","MEAN_MOTION":"15.01257686","FILE":"3928007","MEAN_MOTION_DDOT":"0.0000000000000","REF_FRAME":"TEME","CLASSIFICATION_TYPE":"U","APOAPSIS":"565.282","PERIAPSIS":"560.756","COUNTRY_CODE":"US","ELEMENT_SET_NO":"999","OBJECT_ID":"2022-099W","TLE_LINE2":"2 53485  97.6524 280.5122 0003260 231.5524 128.5408 15.01257686 45146","REV_AT_EPOCH":"4514","PERIOD":"95.920","TIME_SYSTEM":"UTC","SEMIMAJOR_AXIS":"6941.154","EPHEMERIS_TYPE":"0","CENTER_NAME":"EARTH","BSTAR":"0.00003339400000","SITE":"AFWTR","EPOCH":"2023-06-08T07:29:01.168512","GP_ID":"233474001"},{"REF_FRAME":"TEME","FILE":"3928007","MEAN_MOTION_DDOT":"0.0000000000000","MEAN_MOTION":"15.01255966","MEAN_ANOMALY":"131.7159","RCS_SIZE":"LARGE","TIME_SYSTEM":"UTC","TLE_LINE2":"2 53486  97.6524 280.5227 0001770 228.3914 131.7159 15.01255966 45142","PERIOD":"95.920","REV_AT_EPOCH":"4514","ELEMENT_SET_NO":"999","OBJECT_ID":"2022-099X","COUNTRY_CODE":"US","APOAPSIS":"564.253","PERIAPSIS":"561.796","CLASSIFICATION_TYPE":"U","CENTER_NAME":"EARTH","EPHEMERIS_TYPE":"0","SEMIMAJOR_AXIS":"6941.159","GP_ID":"233474249","EPOCH":"2023-06-08T07:34:21.366048","SITE":"AFWTR","BSTAR":"0.00002216300000","OBJECT_NAME":"STARLINK-4431","INCLINATION":"97.6524","TLE_LINE1":"1 53486U 22099X   23159.31552507  .00000226  00000-0  22163-4 0  9994","LAUNCH_DATE":"2022-08-12","MEAN_MOTION_DOT":"0.00000226","ECCENTRICITY":"0.00017700","DECAY_DATE":null,"OBJECT_TYPE":"PAYLOAD","ARG_OF_PERICENTER":"228.3914","NORAD_CAT_ID":"53486","RA_OF_ASC_NODE":"280.5227","MEAN_ELEMENT_THEORY":"SGP4"}];
